{
  "type": "FeatureCollection",
  "features": [
    { "type": "Feature", "id": "z-1", "properties": { "zone_id": "z-1", "station_id": null, "confidence_score": 0.42, "sample_count": 1, "is_thin_sample": true }, "geometry": { "type": "Polygon", "coordinates": [[[106.8224,-6.2266],[106.83147,-6.2266],[106.83147,-6.2184],[106.8224,-6.2184],[106.8224,-6.2266]]] } },
    { "type": "Feature", "id": "z-2", "properties": { "zone_id": "z-2", "station_id": null, "confidence_score": 0.48, "sample_count": 1, "is_thin_sample": true }, "geometry": { "type": "Polygon", "coordinates": [[[106.83147,-6.2266],[106.84054,-6.2266],[106.84054,-6.2184],[106.83147,-6.2184],[106.83147,-6.2266]]] } },
    { "type": "Feature", "id": "z-3", "properties": { "zone_id": "z-3", "station_id": null, "confidence_score": 0.55, "sample_count": 2, "is_thin_sample": true }, "geometry": { "type": "Polygon", "coordinates": [[[106.84054,-6.2266],[106.84961,-6.2266],[106.84961,-6.2184],[106.84054,-6.2184],[106.84054,-6.2266]]] } },
    { "type": "Feature", "id": "z-4", "properties": { "zone_id": "z-4", "station_id": 1, "confidence_score": 0.83, "sample_count": 5, "is_thin_sample": false }, "geometry": { "type": "Polygon", "coordinates": [[[106.84961,-6.2266],[106.85868,-6.2266],[106.85868,-6.2184],[106.84961,-6.2184],[106.84961,-6.2266]]] } },
    { "type": "Feature", "id": "z-5", "properties": { "zone_id": "z-5", "station_id": null, "confidence_score": 0.45, "sample_count": 1, "is_thin_sample": true }, "geometry": { "type": "Polygon", "coordinates": [[[106.8224,-6.2184],[106.83147,-6.2184],[106.83147,-6.2102],[106.8224,-6.2102],[106.8224,-6.2184]]] } },
    { "type": "Feature", "id": "z-6", "properties": { "zone_id": "z-6", "station_id": null, "confidence_score": 0.61, "sample_count": 2, "is_thin_sample": true }, "geometry": { "type": "Polygon", "coordinates": [[[106.83147,-6.2184],[106.84054,-6.2184],[106.84054,-6.2102],[106.83147,-6.2102],[106.83147,-6.2184]]] } },
    { "type": "Feature", "id": "z-7", "properties": { "zone_id": "z-7", "station_id": null, "confidence_score": 0.52, "sample_count": 2, "is_thin_sample": true }, "geometry": { "type": "Polygon", "coordinates": [[[106.84054,-6.2184],[106.84961,-6.2184],[106.84961,-6.2102],[106.84054,-6.2102],[106.84054,-6.2184]]] } },
    { "type": "Feature", "id": "z-8", "properties": { "zone_id": "z-8", "station_id": 1, "confidence_score": 0.9, "sample_count": 8, "is_thin_sample": false }, "geometry": { "type": "Polygon", "coordinates": [[[106.84961,-6.2184],[106.85868,-6.2184],[106.85868,-6.2102],[106.84961,-6.2102],[106.84961,-6.2184]]] } },
    { "type": "Feature", "id": "z-9", "properties": { "zone_id": "z-9", "station_id": 2, "confidence_score": 0.46, "sample_count": 1, "is_thin_sample": true }, "geometry": { "type": "Polygon", "coordinates": [[[106.8224,-6.2102],[106.83147,-6.2102],[106.83147,-6.202],[106.8224,-6.202],[106.8224,-6.2102]]] } },
    { "type": "Feature", "id": "z-10", "properties": { "zone_id": "z-10", "station_id": null, "confidence_score": 0.6, "sample_count": 2, "is_thin_sample": true }, "geometry": { "type": "Polygon", "coordinates": [[[106.83147,-6.2102],[106.84054,-6.2102],[106.84054,-6.202],[106.83147,-6.202],[106.83147,-6.2102]]] } },
    { "type": "Feature", "id": "z-11", "properties": { "zone_id": "z-11", "station_id": null, "confidence_score": 0.78, "sample_count": 4, "is_thin_sample": false }, "geometry": { "type": "Polygon", "coordinates": [[[106.84054,-6.2102],[106.84961,-6.2102],[106.84961,-6.202],[106.84054,-6.202],[106.84054,-6.2102]]] } },
    { "type": "Feature", "id": "z-12", "properties": { "zone_id": "z-12", "station_id": 1, "confidence_score": 0.84, "sample_count": 6, "is_thin_sample": false }, "geometry": { "type": "Polygon", "coordinates": [[[106.84961,-6.2102],[106.85868,-6.2102],[106.85868,-6.202],[106.84961,-6.202],[106.84961,-6.2102]]] } }
  ]
}
