{
  "type": "FeatureCollection",
  "features": [
    {
      "type": "Feature",
      "id": 11,
      "geometry": {
        "type": "Point",
        "coordinates": [
          106.85021581782942,
          -6.209898745923517
        ]
      },
      "properties": {
        "id": 11,
        "station_id": 1,
        "station_name": "Manggarai",
        "point_label": "Pintu Bawah",
        "type": "entrance"
      }
    },
    {
      "type": "Feature",
      "id": 12,
      "geometry": {
        "type": "Point",
        "coordinates": [
          106.85021581782942,
          -6.209898745923517
        ]
      },
      "properties": {
        "id": 12,
        "station_id": 1,
        "station_name": "Manggarai",
        "point_label": "Pintu Bawah Manggarai",
        "type": "entrance"
      }
    },
    {
      "type": "Feature",
      "id": 13,
      "geometry": {
        "type": "Point",
        "coordinates": [
          106.8492864593219,
          -6.210112908837247
        ]
      },
      "properties": {
        "id": 13,
        "station_id": 1,
        "station_name": "Manggarai",
        "point_label": "Pintu Atas",
        "type": "entrance"
      }
    },
    {
      "type": "Feature",
      "id": 21,
      "geometry": {
        "type": "Point",
        "coordinates": [
          106.82318166742444,
          -6.202267977330985
        ]
      },
      "properties": {
        "id": 21,
        "station_id": 2,
        "station_name": "Sudirman",
        "point_label": "Pintu Bawah Utama",
        "type": "entrance"
      }
    },
    {
      "type": "Feature",
      "id": 22,
      "geometry": {
        "type": "Point",
        "coordinates": [
          106.82357353948973,
          -6.202413019184441
        ]
      },
      "properties": {
        "id": 22,
        "station_id": 2,
        "station_name": "Sudirman",
        "point_label": "Pintu Atas",
        "type": "entrance"
      }
    },
    {
      "type": "Feature",
      "id": 23,
      "geometry": {
        "type": "Point",
        "coordinates": [
          106.8246451141926,
          -6.20262664463407
        ]
      },
      "properties": {
        "id": 23,
        "station_id": 2,
        "station_name": "Sudirman",
        "point_label": "Pintu Bawah Belakang",
        "type": "entrance"
      }
    }
  ]
}
